[Satellite]
VERSION=1.1
NAME=ISIS 1
NICKNAME=ISIS 1
TLE1=1 03669U 69009A   18018.78526402  .00000063  00000-0  45371-4 0  9993
TLE2=2 03669  88.4312 124.4692 1710649 321.8087  27.2993 11.29448737 13302
